STARLINK-1686           
1 46328U 20062D   22256.45526976 -.00000420  00000+0 -93075-5 0  9990
2 46328  53.0536 312.4066 0001418  71.3004 288.8139 15.06392088112856
STARLINK-1695           
1 46329U 20062E   22256.42208686  .00000456  00000+0  49492-4 0  9993
2 46329  53.0561 312.5488 0001287  75.7899 284.3233 15.06411028112850
STARLINK-1710           
1 46330U 20062F   22256.54373277  .00001548  00000+0  12279-3 0  9992
2 46330  53.0556 311.9876 0001375  81.8379 278.2766 15.06392830112705
STARLINK-1719           
1 46331U 20062G   22256.51240997 -.00001184  00000+0 -60596-4 0  9996
2 46331  53.0557 332.1241 0001437  90.4409 269.6744 15.06386093112598
STARLINK-1721           
1 46332U 20062H   22256.19172703  .00000264  00000+0  36623-4 0  9990
2 46332  53.0557 333.5847 0001415  77.9506 282.1642 15.06387234112540
STARLINK-1723           
1 46333U 20062J   22256.60456404  .00003194  00000+0  23326-3 0  9990
2 46333  53.0538 331.7241 0001566  56.8706 303.2433 15.06389003112609
STARLINK-1725           
1 46334U 20062K   22256.07565098  .00000556  00000+0  56231-4 0  9993
2 46334  53.0538 314.3743 0001610  80.1107 280.0063 15.06398532112809
STARLINK-1727           
1 46335U 20062L   22256.63403223  .00001135  00000+0  95084-4 0  9990
2 46335  53.0560 331.6020 0001477  67.0382 293.0763 15.06400318112611
STARLINK-1738           
1 46336U 20062M   22255.49692473  .00002101  00000+0  15992-3 0  9994
2 46336  53.0537 316.6855 0001578  85.2695 274.8474 15.06398400112531
STARLINK-1750           
1 46337U 20062N   22256.17513775  .00001012  00000+0  86808-4 0  9993
2 46337  53.0561 313.6600 0001724  69.5912 290.5262 15.06398037112822
STARLINK-1752           
1 46338U 20062P   22256.49028075  .00004195  00000+0  30026-3 0  9998
2 46338  53.0546 332.2483 0001477  76.4186 283.6967 15.06408049112580
STARLINK-1759           
1 46340U 20062R   22256.53082384  .00002023  00000+0  15468-3 0  9990
2 46340  53.0569 332.0680 0001237  94.3337 265.7793 15.06399022112595
STARLINK-1760           
1 46341U 20062S   22256.13828339  .00001122  00000+0  94222-4 0  9990
2 46341  53.0554 313.8256 0001324  88.1615 271.9525 15.06389023112821
STARLINK-1762           
1 46342U 20062T   22256.51608409  .00001223  00000+0  10098-3 0  9997
2 46342  53.0560 332.1199 0001354  77.3023 282.8117 15.06400945112594
STARLINK-1764           
1 46343U 20062U   22256.11247381  .00002663  00000+0  19762-3 0  9998
2 46343  53.0534 313.9360 0001409  73.2465 286.8678 15.06401747112811
STARLINK-1765           
1 46344U 20062V   22255.86551319  .00001034  00000+0  88280-4 0  9992
2 46344  53.0559 315.0506 0001365  78.7285 281.3858 15.06400861112596
STARLINK-1767           
1 46345U 20062W   22256.52987899  .00000921  00000+0  80741-4 0  9991
2 46345  53.0562 332.0424 0001453  77.1975 282.9176 15.06401364112595
STARLINK-1546           
1 46346U 20062X   22256.15494684  .00018134  00000+0  54869-3 0  9992
2 46346  53.0533 160.0419 0001285  49.5001 310.6112 15.34272497114992
STARLINK-1547           
1 46347U 20062Y   22255.49369806  .00000155  00000+0  29277-4 0  9996
2 46347  53.0553 291.7074 0001467  74.2326 285.8825 15.06399984113062
STARLINK-1553           
1 46348U 20062Z   22256.20093964 -.00000076  00000+0  13788-4 0  9999
2 46348  53.0549 313.5263 0001498  65.6029 294.5116 15.06395775112826
STARLINK-1575           
1 46349U 20062AA  22256.59579366  .00000923  00000+0  80821-4 0  9999
2 46349  53.0534 286.7604 0001567  62.4810 297.6338 15.06401096113231
STARLINK-1617           
1 46350U 20062AB  22256.62666127  .00002094  00000+0  15945-3 0  9992
2 46350  53.0541 331.6351 0001632  61.1738 298.9415 15.06400325112613
STARLINK-1646           
1 46351U 20062AC  22256.10047476  .00002631  00000+0  19546-3 0  9994
2 46351  53.0541 313.9622 0001403  73.3825 286.7318 15.06402653112811
STARLINK-1653           
1 46352U 20062AD  22255.48586803 -.00000364  00000+0 -55283-5 0  9990
2 46352  53.0559 316.7457 0001280  87.1717 272.9419 15.06395431112728
STARLINK-1656           
1 46353U 20062AE  22256.14749236  .00004159  00000+0  29789-3 0  9990
2 46353  53.0544 333.7807 0001430  96.8612 263.2540 15.06404973112538
STARLINK-1657           
1 46354U 20062AF  22256.53451501  .00002419  00000+0  18123-3 0  9996
2 46354  53.0562 332.0296 0001286  74.8560 285.2571 15.06398245112598
STARLINK-1661           
1 46355U 20062AG  22256.50871354 -.00000288  00000+0 -41886-6 0  9995
2 46355  53.0540 332.1648 0001423  85.1229 274.9922 15.06393710112594
STARLINK-1665           
1 46356U 20062AH  22256.18709206  .00001154  00000+0  96339-4 0  9998
2 46356  53.0553 333.5924 0001467 104.5365 255.5787 15.06396141112546
STARLINK-1666           
1 46357U 20062AJ  22256.18619421  .00000844  00000+0  75588-4 0  9996
2 46357  53.0566 313.5964 0001491  74.9173 285.1981 15.06395049112829
STARLINK-1690           
1 46358U 20062AK  22256.49765432  .00001559  00000+0  12355-3 0  9991
2 46358  53.0551 332.2061 0001366  77.9424 282.1718 15.06399926112590
STARLINK-1707           
1 46359U 20062AL  22255.48263811  .00001429  00000+0  11478-3 0  9995
2 46359  53.0537 291.7711 0001287  85.7757 274.3379 15.06401108112888
STARLINK-1713           
1 46360U 20062AM  22256.56631158  .00004812  00000+0  34172-3 0  9995
2 46360  53.0528 286.9031 0001470  69.2066 290.9081 15.06401289113239
STARLINK-1722           
1 46361U 20062AN  22256.13779823 -.00000154  00000+0  85696-5 0  9996
2 46361  53.0542 288.7958 0001386  79.1670 280.9475 15.06389133113151
STARLINK-1726           
1 46362U 20062AP  22256.11661790  .00000414  00000+0  46721-4 0  9991
2 46362  53.0548 288.9195 0001521  74.6004 285.5153 15.06399074113165
STARLINK-1739           
1 46363U 20062AQ  22256.10830603  .00001093  00000+0  92288-4 0  9995
2 46363  53.0520 288.9253 0001587  73.9447 286.1717 15.06404138113134
STARLINK-1763           
1 46364U 20062AR  22256.11115535  .00000460  00000+0  49808-4 0  9994
2 46364  53.0535 269.4302 0001367 110.2747 249.8389 15.06398872113435
STARLINK-1550           
1 46365U 20062AS  22256.08713673  .00002473  00000+0  18485-3 0  9990
2 46365  53.0537 289.0414 0001377  82.3549 277.7597 15.06402161113135
STARLINK-1651           
1 46366U 20062AT  22256.40781102  .00000589  00000+0  58403-4 0  9990
2 46366  53.0550 287.6085 0001414  80.4433 279.6716 15.06399227113202
STARLINK-1658           
1 46368U 20062AV  22255.54389859  .00000462  00000+0  49932-4 0  9996
2 46368  53.0549 316.4628 0001362  75.3805 284.7335 15.06395852112555
STARLINK-1670           
1 46370U 20062AX  22256.17145020  .00001097  00000+0  92499-4 0  9990
2 46370  53.0536 313.6656 0001356  75.7112 284.4027 15.06398142112822
STARLINK-1688           
1 46371U 20062AY  22256.42946272 -.00001806  00000+0 -10236-3 0  9995
2 46371  53.0557 312.5111 0001494  71.0136 289.1015 15.06404178112868
STARLINK-1689           
1 46372U 20062AZ  22256.63772223 -.00000293  00000+0 -80709-6 0  9996
2 46372  53.0564 331.5644 0001456  73.1725 286.9424 15.06394647112615
STARLINK-1711           
1 46374U 20062BB  22256.31981474 -.00000808  00000+0 -35338-4 0  9991
2 46374  53.0543 263.0024 0001595  92.6668 267.4504 15.06394024113535
STARLINK-1724           
1 46375U 20062BC  22256.40043978  .00000701  00000+0  65980-4 0  9996
2 46375  53.0547 287.6247 0001470  73.8836 286.2314 15.06402788113208
STARLINK-1742           
1 46376U 20062BD  22255.81805709  .00003457  00000+0  25085-3 0  9991
2 46376  53.0542 290.2568 0001160  80.7443 279.3677 15.06404171112939
STARLINK-1758           
1 46380U 20062BH  22256.44789883 -.00000522  00000+0 -16139-4 0  9993
2 46380  53.0537 312.4383 0001393  80.6781 279.4365 15.06392084112868
STARLINK-1769           
1 46382U 20062BK  22256.49627432  .00000425  00000+0  47447-4 0  9997
2 46382  53.0544 287.2205 0001466  64.1187 295.9953 15.06393970113196
STARLINK-1770           
1 46383U 20062BL  22256.48290664  .00001653  00000+0  12984-3 0  9991
2 46383  53.0550 332.2815 0001501  71.8156 288.2996 15.06404228112586
STARLINK-1771           
1 46384U 20062BM  22256.61928963  .00000924  00000+0  80922-4 0  9995
2 46384  53.0559 331.6568 0001350  87.6579 272.4565 15.06399203112606
STARLINK-1644           
1 46532U 20070A   22256.08850765  .00002489  00000+0  18589-3 0  9991
2 46532  53.0556 134.0372 0001396  77.2719 282.8426 15.06406820107561
STARLINK-1648           
1 46533U 20070B   22255.83418271  .00000540  00000+0  55147-4 0  9994
2 46533  53.0537 135.1689 0001630  65.3555 294.7603 15.06399313107502
STARLINK-1659           
1 46534U 20070C   22255.08594023  .00002254  00000+0  17018-3 0  9990
2 46534  53.0535 138.5412 0001568  69.0727 291.0430 15.06399933107397
STARLINK-1663           
1 46535U 20070D   22255.80469436  .00002296  00000+0  17301-3 0  9991
2 46535  53.0546 135.3219 0001614  81.0765 279.0406 15.06401583107493
STARLINK-1672           
1 46537U 20070F   22256.09589619  .00000626  00000+0  60963-4 0  9999
2 46537  53.0558 134.0009 0001438  75.7673 284.3476 15.06385998107254
STARLINK-1678           
1 46538U 20070G   22256.07376581  .00000278  00000+0  37560-4 0  9990
2 46538  53.0535 134.0994 0001416  75.9958 284.1188 15.06406159107247
STARLINK-1687           
1 46541U 20070K   22255.98715716 -.00000629  00000+0 -23357-4 0  9991
2 46541  53.0534 114.5041 0001299  78.8414 281.2721 15.06393191107808
STARLINK-1692           
1 46542U 20070L   22255.78994835  .00001672  00000+0  13109-3 0  9991
2 46542  53.0549 135.3836 0001458  76.0877 284.0274 15.06405374107494
STARLINK-1693           
1 46543U 20070M   22255.77520894  .00001538  00000+0  12216-3 0  9990
2 46543  53.0548 135.4431 0001287  75.8230 284.2902 15.06394612107498
STARLINK-1694           
1 46544U 20070N   22256.03644934  .00000260  00000+0  36343-4 0  9992
2 46544  53.0539 119.2840 0001307  73.2208 286.8925 15.06403957107758
STARLINK-1696           
1 46545U 20070P   22255.81206956  .00000129  00000+0  27570-4 0  9992
2 46545  53.0538 135.2817 0001541  56.9922 303.1215 15.06396424107497
